{"type": "FeatureCollection", "features": [ {"type": "Feature", "properties": {"norad_id": 30501, "name": "FENGYUN 1C DEB", "group": "fengyun-1c-debris", "lat": 33.51070479488589, "lon": 176.62068749463256, "alt_km": 777.431923186341, "timestamp": "2025-12-25T07:00:34.323069+00:00", "meta": {"OBJECT_NAME": "FENGYUN 1C DEB", "OBJECT_ID": "1999-025AHP", "EPOCH": "2025-12-23T22:27:29.967264", "MEAN_MOTION": 14.25415034, "ECCENTRICITY": 0.0040764, "INCLINATION": 99.0848, "RA_OF_ASC_NODE": 349.1348, "ARG_OF_PERICENTER": 170.1537, "MEAN_ANOMALY": 219.9473, "EPHEMERIS_TYPE": 0, "CLASSIFICATION_TYPE": "U", "NORAD_CAT_ID": 30501, "ELEMENT_SET_NO": 999, "REV_AT_EPOCH": 97079, "BSTAR": 0.0015032, "MEAN_MOTION_DOT": 3.532e-05, "MEAN_MOTION_DDOT": 0}, "tle": {"line1": "1 30501U 99025AHP 25357.93576351  .00003532  00000+0  15032-2 0  9990", "line2": "2 30501  99.0848 349.1348 0040764 170.1537 219.9473 14.25415034970792"}}, "geometry": {"type": "Point", "coordinates": [176.62068749463256, 33.51070479488589]}}, {"type": "Feature", "properties": {"norad_id": 30503, "name": "FENGYUN 1C DEB", "group": "fengyun-1c-debris", "lat": -54.38380602019855, "lon": -143.6893225746285, "alt_km": 843.9683453056614, "timestamp": "2025-12-25T07:00:34.323080+00:00", "meta": {"OBJECT_NAME": "FENGYUN 1C DEB", "OBJECT_ID": "1999-025AHR", "EPOCH": "2025-12-24T08:22:25.057632", "MEAN_MOTION": 14.16137258, "ECCENTRICITY": 0.00083418, "INCLINATION": 99.2039, "RA_OF_ASC_NODE": 202.2551, "ARG_OF_PERICENTER": 231.0604, "MEAN_ANOMALY": 307.8017, "EPHEMERIS_TYPE": 0, "CLASSIFICATION_TYPE": "U", "NORAD_CAT_ID": 30503, "ELEMENT_SET_NO": 999, "REV_AT_EPOCH": 97510, "BSTAR": 0.00026421451, "MEAN_MOTION_DOT": 4.75e-06, "MEAN_MOTION_DDOT": 0}, "tle": {"line1": "1 30503U 99025AHR 25358.34890113  .00000475  00000+0  26421-3 0  9991", "line2": "2 30503  99.2039 202.2551 0008341 231.0604 307.8017 14.16137258975100"}}, "geometry": {"type": "Point", "coordinates": [-143.6893225746285, -54.38380602019855]}}, {"type": "Feature", "properties": {"norad_id": 30504, "name": "FENGYUN 1C DEB", "group": "fengyun-1c-debris", "lat": -5.316346532666473, "lon": 46.57871963898815, "alt_km": 907.8376048042319, "timestamp": "2025-12-25T07:00:34.323090+00:00", "meta": {"OBJECT_NAME": "FENGYUN 1C DEB", "OBJECT_ID": "1999-025AHS", "EPOCH": "2025-12-24T16:25:28.115616", "MEAN_MOTION": 14.20524696, "ECCENTRICITY": 0.01126531, "INCLINATION": 99.024, "RA_OF_ASC_NODE": 45.1113, "ARG_OF_PERICENTER": 182.4564, "MEAN_ANOMALY": 306.111, "EPHEMERIS_TYPE": 0, "CLASSIFICATION_TYPE": "U", "NORAD_CAT_ID": 30504, "ELEMENT_SET_NO": 999, "REV_AT_EPOCH": 97563, "BSTAR": 0.00056757018, "MEAN_MOTION_DOT": 1.254e-05, "MEAN_MOTION_DDOT": 0}, "tle": {"line1": "1 30504U 99025AHS 25358.68435319  .00001254  00000+0  56757-3 0  9993", "line2": "2 30504  99.0240  45.1113 0112653 182.4564 306.1110 14.20524696975632"}}, "geometry": {"type": "Point", "coordinates": [46.57871963898815, -5.316346532666473]}}, {"type": "Feature", "properties": {"norad_id": 30505, "name": "FENGYUN 1C DEB", "group": "fengyun-1c-debris", "lat": -33.62654015678197, "lon": 85.10156834364102, "alt_km": 846.8478371816618, "timestamp": "2025-12-25T07:00:34.323101+00:00", "meta": {"OBJECT_NAME": "FENGYUN 1C DEB", "OBJECT_ID": "1999-025AHT", "EPOCH": "2025-12-24T21:29:08.348064", "MEAN_MOTION": 14.22120215, "ECCENTRICITY": 0.00643145, "INCLINATION": 98.925, "RA_OF_ASC_NODE": 78.7011, "ARG_OF_PERICENTER": 207.6722, "MEAN_ANOMALY": 247.2138, "EPHEMERIS_TYPE": 0, "CLASSIFICATION_TYPE": "U", "NORAD_CAT_ID": 30505, "ELEMENT_SET_NO": 999, "REV_AT_EPOCH": 97096, "BSTAR": 0.0017897245, "MEAN_MOTION_DOT": 4.004e-05, "MEAN_MOTION_DDOT": 0}, "tle": {"line1": "1 30505U 99025AHT 25358.89523551  .00004004  00000+0  17897-2 0  9990", "line2": "2 30505  98.9250  78.7011 0064314 207.6722 247.2138 14.22120215970964"}}, "geometry": {"type": "Point", "coordinates": [85.10156834364102, -33.62654015678197]}}, {"type": "Feature", "properties": {"norad_id": 30506, "name": "FENGYUN 1C DEB", "group": "fengyun-1c-debris", "lat": 69.57562978097155, "lon": -151.544315819327, "alt_km": 903.3672150117845, "timestamp": "2025-12-25T07:00:34.323114+00:00", "meta": {"OBJECT_NAME": "FENGYUN 1C DEB", "OBJECT_ID": "1999-025AHU", "EPOCH": "2025-12-24T17:10:02.627616", "MEAN_MOTION": 14.08663853, "ECCENTRICITY": 0.00698106, "INCLINATION": 98.757, "RA_OF_ASC_NODE": 3.4441, "ARG_OF_PERICENTER": 313.9368, "MEAN_ANOMALY": 111.0174, "EPHEMERIS_TYPE": 0, "CLASSIFICATION_TYPE": "U", "NORAD_CAT_ID": 30506, "ELEMENT_SET_NO": 999, "REV_AT_EPOCH": 96990, "BSTAR": 0.00024361839, "MEAN_MOTION_DOT": 3.85e-06, "MEAN_MOTION_DDOT": 0}, "tle": {"line1": "1 30506U 99025AHU 25358.71530819  .00000385  00000+0  24362-3 0  9991", "line2": "2 30506  98.7570   3.4441 0069810 313.9368 111.0174 14.08663853969907"}}, "geometry": {"type": "Point", "coordinates": [-151.544315819327, 69.57562978097155]}}, {"type": "Feature", "properties": {"norad_id": 30507, "name": "FENGYUN 1C DEB", "group": "fengyun-1c-debris", "lat": 67.02864172014557, "lon": 41.87737775058409, "alt_km": 812.5083601059541, "timestamp": "2025-12-25T07:00:34.323125+00:00", "meta": {"OBJECT_NAME": "FENGYUN 1C DEB", "OBJECT_ID": "1999-025AHV", "EPOCH": "2025-12-22T11:18:45.124704", "MEAN_MOTION": 14.13218957, "ECCENTRICITY": 0.01284187, "INCLINATION": 99.0129, "RA_OF_ASC_NODE": 61.0259, "ARG_OF_PERICENTER": 149.106, "MEAN_ANOMALY": 338.4187, "EPHEMERIS_TYPE": 0, "CLASSIFICATION_TYPE": "U", "NORAD_CAT_ID": 30507, "ELEMENT_SET_NO": 999, "REV_AT_EPOCH": 96635, "BSTAR": 0.00099570229, "MEAN_MOTION_DOT": 1.972e-05, "MEAN_MOTION_DDOT": 0}, "tle": {"line1": "1 30507U 99025AHV 25356.47135561  .00001972  00000+0  99570-3 0  9994", "line2": "2 30507  99.0129  61.0259 0128418 149.1060 338.4187 14.13218957966359"}}, "geometry": {"type": "Point", "coordinates": [41.87737775058409, 67.02864172014557]}}, {"type": "Feature", "properties": {"norad_id": 30509, "name": "FENGYUN 1C DEB", "group": "fengyun-1c-debris", "lat": -6.948943043360119, "lon": -128.6049619513084, "alt_km": 809.8634966852151, "timestamp": "2025-12-25T07:00:34.323135+00:00", "meta": {"OBJECT_NAME": "FENGYUN 1C DEB", "OBJECT_ID": "1999-025AHX", "EPOCH": "2025-12-24T02:45:50.090976", "MEAN_MOTION": 14.07725961, "ECCENTRICITY": 0.01024574, "INCLINATION": 98.4648, "RA_OF_ASC_NODE": 229.2516, "ARG_OF_PERICENTER": 31.4768, "MEAN_ANOMALY": 121.2979, "EPHEMERIS_TYPE": 0, "CLASSIFICATION_TYPE": "U", "NORAD_CAT_ID": 30509, "ELEMENT_SET_NO": 999, "REV_AT_EPOCH": 95882, "BSTAR": 0.0022392549, "MEAN_MOTION_DOT": 3.936e-05, "MEAN_MOTION_DDOT": 0}, "tle": {"line1": "1 30509U 99025AHX 25358.11516309  .00003936  00000+0  22393-2 0  9992", "line2": "2 30509  98.4648 229.2516 0102457  31.4768 121.2979 14.07725961958828"}}, "geometry": {"type": "Point", "coordinates": [-128.6049619513084, -6.948943043360119]}}, {"type": "Feature", "properties": {"norad_id": 30510, "name": "FENGYUN 1C DEB", "group": "fengyun-1c-debris", "lat": -76.88382869696979, "lon": 56.06834373931329, "alt_km": 904.8782229148619, "timestamp": "2025-12-25T07:00:34.323146+00:00", "meta": {"OBJECT_NAME": "FENGYUN 1C DEB", "OBJECT_ID": "1999-025AHY", "EPOCH": "2025-12-24T14:58:03.808416", "MEAN_MOTION": 14.12906526, "ECCENTRICITY": 0.00787109, "INCLINATION": 99.2447, "RA_OF_ASC_NODE": 11.0324, "ARG_OF_PERICENTER": 133.1746, "MEAN_ANOMALY": 347.7375, "EPHEMERIS_TYPE": 0, "CLASSIFICATION_TYPE": "U", "NORAD_CAT_ID": 30510, "ELEMENT_SET_NO": 999, "REV_AT_EPOCH": 96742, "BSTAR": 0.0013524734, "MEAN_MOTION_DOT": 2.547e-05, "MEAN_MOTION_DDOT": 0}, "tle": {"line1": "1 30510U 99025AHY 25358.62365519  .00002547  00000+0  13525-2 0  9999", "line2": "2 30510  99.2447  11.0324 0078710 133.1746 347.7375 14.12906526967425"}}, "geometry": {"type": "Point", "coordinates": [56.06834373931329, -76.88382869696979]}}, {"type": "Feature", "properties": {"norad_id": 30514, "name": "FENGYUN 1C DEB", "group": "fengyun-1c-debris", "lat": -47.12214837894581, "lon": 31.66434849077653, "alt_km": 813.3564151388091, "timestamp": "2025-12-25T07:00:34.323156+00:00", "meta": {"OBJECT_NAME": "FENGYUN 1C DEB", "OBJECT_ID": "1999-025AJC", "EPOCH": "2025-12-24T12:48:54.960480", "MEAN_MOTION": 14.34392301, "ECCENTRICITY": 0.01741742, "INCLINATION": 98.4121, "RA_OF_ASC_NODE": 21.7559, "ARG_OF_PERICENTER": 59.199, "MEAN_ANOMALY": 302.6209, "EPHEMERIS_TYPE": 0, "CLASSIFICATION_TYPE": "U", "NORAD_CAT_ID": 30514, "ELEMENT_SET_NO": 999, "REV_AT_EPOCH": 98394, "BSTAR": 0.00047034506, "MEAN_MOTION_DOT": 1.524e-05, "MEAN_MOTION_DDOT": 0}, "tle": {"line1": "1 30514U 99025AJC 25358.53396945  .00001524  00000+0  47035-3 0  9998", "line2": "2 30514  98.4121  21.7559 0174174  59.1990 302.6209 14.34392301983941"}}, "geometry": {"type": "Point", "coordinates": [31.66434849077653, -47.12214837894581]}}, {"type": "Feature", "properties": {"norad_id": 30515, "name": "FENGYUN 1C DEB", "group": "fengyun-1c-debris", "lat": -4.067279711739927, "lon": 53.328288972255635, "alt_km": 1310.2356868935758, "timestamp": "2025-12-25T07:00:34.323167+00:00", "meta": {"OBJECT_NAME": "FENGYUN 1C DEB", "OBJECT_ID": "1999-025AJD", "EPOCH": "2025-12-24T14:26:04.818624", "MEAN_MOTION": 13.63831513, "ECCENTRICITY": 0.04969836, "INCLINATION": 98.5091, "RA_OF_ASC_NODE": 233.3308, "ARG_OF_PERICENTER": 43.2571, "MEAN_ANOMALY": 348.2059, "EPHEMERIS_TYPE": 0, "CLASSIFICATION_TYPE": "U", "NORAD_CAT_ID": 30515, "ELEMENT_SET_NO": 999, "REV_AT_EPOCH": 93492, "BSTAR": 0.00097633438, "MEAN_MOTION_DOT": 1.765e-05, "MEAN_MOTION_DDOT": 0}, "tle": {"line1": "1 30515U 99025AJD 25358.60144466  .00001765  00000+0  97633-3 0  9992", "line2": "2 30515  98.5091 233.3308 0496983  43.2571 348.2059 13.63831513934923"}}, "geometry": {"type": "Point", "coordinates": [53.328288972255635, -4.067279711739927]}}]}